[{"OBJECT_NAME":"TECHNOSAT","OBJECT_ID":"2017-042E","EPOCH":"2026-03-09T21:27:07.546176","MEAN_MOTION":15.04288119,"ECCENTRICITY":0.00196291,"INCLINATION":97.4156,"RA_OF_ASC_NODE":230.4429,"ARG_OF_PERICENTER":75.0719,"MEAN_ANOMALY":285.2679,"EPHEMERIS_TYPE":0,"CLASSIFICATION_TYPE":"U","NORAD_CAT_ID":42829,"ELEMENT_SET_NO":999,"REV_AT_EPOCH":47177,"BSTAR":0.00032015047,"MEAN_MOTION_DOT":4.417e-5,"MEAN_MOTION_DDOT":0},{"OBJECT_NAME":"STARLINK-5841","OBJECT_ID":"2023-064AX","EPOCH":"2026-03-09T09:55:02.143200","MEAN_MOTION":14.98303276,"ECCENTRICITY":0.00032249,"INCLINATION":69.9991,"RA_OF_ASC_NODE":85.1707,"ARG_OF_PERICENTER":277.624,"MEAN_ANOMALY":82.4553,"EPHEMERIS_TYPE":0,"CLASSIFICATION_TYPE":"U","NORAD_CAT_ID":56493,"ELEMENT_SET_NO":999,"REV_AT_EPOCH":15668,"BSTAR":-0.0002372291,"MEAN_MOTION_DOT":-2.921e-5,"MEAN_MOTION_DDOT":0}]
